      2.10          N: GNSS NAV DATA                        RINEX VERSION / TYPE
fic2rin                                 04/22/2022 00:17:36 PGM / RUN BY / DATE
                                                            END OF HEADER
6  22  4 21  1 59 44.0  .274213030934D-03  .138697942020D-10  .000000000000D+00
     .600000000000D+01 -.113875000000D+03  .404195407790D-08 -.168696469994D+01
    -.585801899433D-05  .262140273117D-02  .515207648277D-05  .515371317482D+04
     .352784000000D+06 -.875443220139D-07 -.304680627793D+01  .577419996262D-07
     .987138231138D+00  .298250000000D+03 -.875233051438D+00 -.796354599937D-08
    -.978612191697D-10  .100000000000D+01  .220600000000D+04  .000000000000D+00
     .240000000000D+01  .000000000000D+00  .372529029846D-08  .600000000000D+01
     .345600000000D+06  .400000000000D+01
8  22  4 21  1 59 44.0 -.648102723062D-04 -.159161572810D-11  .000000000000D+00
     .560000000000D+02  .507187500000D+02  .460162024738D-08  .261849525415D+00
     .277906656265D-05  .744622317143D-02  .155344605446D-05  .515374991226D+04
     .352784000000D+06  .197440385818D-06  .216360649062D+01 -.558793544769D-08
     .963794340554D+00  .350750000000D+03  .155524813501D+00 -.846285251178D-08
     .174650132022D-09  .100000000000D+01  .220600000000D+04  .000000000000D+00
     .240000000000D+01  .000000000000D+00  .512227416039D-08  .560000000000D+02
     .345600000000D+06  .400000000000D+01
15 22  4 21  6  0  0.0 -.673029571772D-04  .295585778076D-11  .000000000000D+00
     .870000000000D+02 -.123750000000D+02  .573166731838D-08  .140412607880D+01
    -.657513737679D-06  .139864506200D-01  .737980008125D-05  .515376424789D+04
     .367200000000D+06 -.348314642906D-06 -.108416835887D+01  .372529029846D-08
     .929895771057D+00  .226875000000D+03  .108714225627D+01 -.856071373095D-08
     .318584698903D-09  .100000000000D+01  .220600000000D+04  .000000000000D+00
     .240000000000D+01  .000000000000D+00 -.107102096081D-07  .870000000000D+02
     .360000000000D+06  .400000000000D+01
20 22  4 21  6  0  0.0  .515727326274D-03 -.227373675443D-12  .000000000000D+00
     .470000000000D+02 -.849687500000D+02  .481091467962D-08  .117560835331D+01
    -.455975532532D-05  .486131943762D-02  .101421028376D-04  .515356085777D+04
     .367200000000D+06 -.745058059692D-08 -.216114016873D+01  .689178705215D-07
     .942578287723D+00  .175656250000D+03 -.312204744631D+01 -.808140805165D-08
     .330370904131D-09  .100000000000D+01  .220600000000D+04  .000000000000D+00
     .240000000000D+01  .000000000000D+00 -.838190317154D-08  .470000000000D+02
     .360000000000D+06  .400000000000D+01
22 22  4 21  6  0  0.0  .246714334935D-03  .602540239925D-11  .000000000000D+00
     .112000000000D+03 -.116250000000D+02  .478555648049D-08  .221989148691D+01
    -.815838575363D-06  .132651424501D-01  .690296292305D-05  .515367394638D+04
     .367200000000D+06  .100582838058D-06 -.874525673493D+00 -.258907675743D-06
     .961200734554D+00  .243687500000D+03 -.185853598536D+01 -.779996775711D-08
     .115361948145D-09  .100000000000D+01  .220600000000D+04  .000000000000D+00
     .240000000000D+01  .000000000000D+00 -.977888703346D-08  .112000000000D+03
     .360000000000D+06  .400000000000D+01
25 22  4 21  6  0  0.0  .314726494253D-03  .500222085975D-11  .000000000000D+00
     .870000000000D+02  .121312500000D+03  .429410743824D-08 -.142071392111D+01
     .625289976597D-05  .105466489913D-01  .935420393944D-05  .515368869019D+04
     .367200000000D+06  .253319740295D-06  .113056237146D+01  .782310962677D-07
     .957068424004D+00  .197281250000D+03  .998891822620D+00 -.786532762247D-08
    -.279654505876D-09  .100000000000D+01  .220600000000D+04  .000000000000D+00
     .240000000000D+01  .000000000000D+00  .558793544769D-08  .870000000000D+02
     .360000000000D+06  .400000000000D+01
19 22  4 21  6  0  0.0  .147153157741D-03  .500222085975D-11  .000000000000D+00
     .200000000000D+01  .382500000000D+02  .413695803519D-08 -.155893099178D+01
     .233203172684D-05  .915931572672D-02  .213272869587D-05  .515369428635D+04
     .367200000000D+06 -.800937414169D-07  .229123251423D+01  .912696123123D-07
     .977853103255D+00  .350812500000D+03  .203933152225D+01 -.820105589261D-08
     .192508018732D-09  .100000000000D+01  .220600000000D+04  .000000000000D+00
     .240000000000D+01  .000000000000D+00 -.158324837685D-07  .258000000000D+03
     .360000000000D+06  .400000000000D+01
23 22  4 21  6  0  0.0 -.165021046996D-04 -.284217094304D-11  .000000000000D+00
     .123000000000D+03 -.854062500000D+02  .424339103998D-08 -.592847592585D+00
    -.436045229435D-05  .207867519930D-02  .976212322712D-05  .515371238327D+04
     .367200000000D+06 -.558793544769D-08 -.203260263305D+01  .316649675369D-07
     .968091510269D+00  .194968750000D+03  .300978561157D+01 -.779318176016D-08
     .461447792581D-09  .100000000000D+01  .220600000000D+04  .000000000000D+00
     .240000000000D+01  .000000000000D+00 -.838190317154D-08  .635000000000D+03
     .360000000000D+06  .400000000000D+01
18 22  4 21  6  0  0.0  .190204940736D-03 -.954969436862D-11  .000000000000D+00
     .840000000000D+02 -.104000000000D+03  .420303221602D-08  .466101787765D+00
    -.535696744919D-05  .222792662680D-02  .427477061749D-05  .515361343956D+04
     .367200000000D+06  .409781932831D-07 -.303180509755D+01  .428408384323D-07
     .971586478614D+00  .304281250000D+03  .304963976738D+01 -.815033949435D-08
    -.928610108910D-11  .100000000000D+01  .220600000000D+04  .000000000000D+00
     .240000000000D+01  .000000000000D+00 -.838190317154D-08  .340000000000D+03
     .360000000000D+06  .400000000000D+01
28 22  4 21  6  0  0.0  .369134359062D-03 -.443378667114D-11  .000000000000D+00
     .220000000000D+02  .123906250000D+03  .392373486788D-08  .282856087938D+01
     .640936195850D-05  .166399092413D-01  .802427530289D-05  .515368943977D+04
     .367200000000D+06  .154599547386D-06  .123013233417D+01  .521540641785D-07
     .968609522246D+00  .227093750000D+03 -.128038640971D+01 -.744066707651D-08
    -.193222334200D-09  .100000000000D+01  .220600000000D+04  .000000000000D+00
     .240000000000D+01  .630000000000D+02 -.111758708954D-07  .220000000000D+02
     .360000000000D+06  .400000000000D+01
